15P/Finlay,e,6.7973,13.7209,347.8439,3.503558,0.1502935,0.71687298,276.7897,01/07.0/2020,2000,g 12.0,4.0
# From MPC 92276
16P/Brooks,e,3.0056,138.9740,245.1411,3.659904,0.1407666,0.48801237,294.2974,01/07.0/2020,2000,g  7.5,10.0
# From MPC114607
17P/Holmes,e,19.0227,326.6585,24.5705,3.635465,0.1421884,0.42824726,301.6917,01/07.0/2020,2000,g 10.0,6.0
# From MPC 92984
19P/Borrelly,e,29.6905,74.6144,351.8046,3.599281,0.1443379,0.64009766,250.9135,01/07.0/2020,2000,g  4.5,10.0
# From MPC111773
21P/Giacobini-Zinner,e,32.0038,195.3759,172.8488,3.496466,0.1507510,0.71051031,72.9174,01/07.0/2020,2000,g  9.0,6.0
# From MPC 94283
22P/Kopff,e,4.7415,120.8360,162.9403,3.443610,0.1542351,0.54882346,236.4665,01/07.0/2020,2000,g  3.0,10.4
# From MPC 14747
23P/Brorsen-Metcalf,e,19.1605,312.3108,128.9323,16.95747,0.0141144,0.97091121,0.0000,08/17.5710/1989,2000,g 10.0,6.0
# From MPC110085
24P/Schaumasse,e,11.7280,79.5779,57.7381,4.069520,0.1200575,0.70708569,93.6798,01/07.0/2020,2000,g  6.5,14.0
# From MPC 94674
26P/Grigg-Skjellerup,e,22.4476,211.5349,2.1943,3.013773,0.1883815,0.64078816,87.0787,01/07.0/2020,2000,g 12.0,16.0
# From MPC 78188
27P/Crommelin,e,29.1116,250.5737,196.0156,9.193107,0.0353599,0.91791125,109.1739,01/07.0/2020,2000,g 12.0,8.0
# From MPC114607
28P/Neujmin,e,14.3116,346.3466,347.4390,6.968019,0.0535846,0.77355625,336.9595,01/07.0/2020,2000,g  8.5,6.0
# From MPEC 2019-VB6
29P/Schwassmann-Wachmann,e,9.3671,312.3823,47.9997,6.030483,0.0665543,0.04369863,20.1170,01/07.0/2020,2000,g  4.0,4.0
# From MPC110085
30P/Reinmuth,e,8.3026,119.0561,13.1451,3.748796,0.1357896,0.51140469,117.6017,01/07.0/2020,2000,g  9.5,6.0
# From MPC108597
31P/Schwassmann-Wachmann,e,4.5473,114.1128,18.3238,4.242774,0.1127793,0.19267000,20.8690,01/07.0/2020,2000,g  5.0,8.0
# From MPC 92276
32P/Comas Sola,e,9.9428,57.6513,53.3109,4.498666,0.1032948,0.55678292,197.1792,01/07.0/2020,2000,g  6.5,8.0
# From MPEC 2013-O31
33P/Daniel,e,22.3612,66.3721,20.6449,4.079690,0.1196088,0.45369841,148.1237,01/07.0/2020,2000,g 10.0,12.0
# From  15, 452
35P/Herschel-Rigollet,e,64.501,356.244,29.132,28.5700,0.006454,0.9733364,0.000,12/25.5179/2091,2000,g  9.0,4.0
# From MPC105240
36P/Whipple,e,9.9529,181.8638,200.7580,4.129831,0.1174372,0.26833073,342.9037,01/07.0/2020,2000,g  8.5,6.0
# From MPEC 2018-HA5
37P/Forbes,e,8.9565,314.5698,330.0545,3.458583,0.1532345,0.53417780,93.8984,01/07.0/2020,2000,g 10.5,4.8
# From MPEC 2018-S50
38P/Stephan-Oterma,e,18.3534,77.9977,359.5613,11.26761,0.0260589,0.85904319,10.9987,01/07.0/2020,2000,g  3.5,12.0
# From MPC115887
39P/Oterma,e,1.5611,299.2548,94.7933,7.411700,0.0488458,0.22355962,300.4107,01/07.0/2020,2000,g  7.0,6.0
# From MPC100283
40P/Vaisala,e,11.4718,133.7922,47.4635,4.949764,0.0895009,0.63027785,168.2518,01/07.0/2020,2000,g  5.5,12.0
# From MPC105240
41P/Tuttle-Giacobini-Kresak,e,9.2219,141.0082,62.2570,3.085642,0.1818385,0.66050551,181.7640,01/07.0/2020,2000,g 10.0,16.0
# From MPC 94283
42P/Neujmin,e,3.9880,150.2044,147.1414,4.873062,0.0916223,0.58537025,158.7642,01/07.0/2020,2000,g 13.0,6.0
# From MPC102956
43P/Wolf-Harrington,e,9.4908,244.7532,223.8086,4.297476,0.1106328,0.44302617,134.7525,01/07.0/2020,2000,g  8.0,6.0
# From MPC 89313
44P/Reinmuth,e,5.8982,286.4822,58.1231,3.689026,0.1391030,0.42691251,243.4628,01/07.0/2020,2000,g  8.3,6.0
# From MPC103849
45P/Honda-Mrkos-Pajdusakova,e,4.3263,87.6935,327.9873,3.049155,0.1851121,0.81790513,204.5561,01/07.0/2020,2000,g 13.5,8.0
# From MPC114607
46P/Wirtanen,e,11.7449,82.1532,356.3665,3.091893,0.1812873,0.65853748,70.7215,01/07.0/2020,2000,g 14.0,6.0
# From NK 2718
47P/Ashbrook-Jackson,e,13.0317,356.9361,357.6057,4.125781,0.1176102,0.31766315,110.6488,01/07.0/2020,2000,g  9.0,4.0
# From MPEC 2015-M77
48P/Johnson,e,12.2077,110.1271,216.6029,3.500025,0.1505211,0.42725187,77.1662,01/07.0/2020,2000,g  9.0,4.0
# From MPEC 2015-M77
49P/Arend-Rigaux,e,19.0445,118.8042,332.9525,3.569537,0.1461458,0.59901336,79.0124,01/07.0/2020,2000,g  9.0,4.0
# From MPEC 2015-S97
50P/Arend,e,19.0962,355.1536,49.3693,4.089710,0.1191695,0.52846775,170.5256,01/07.0/2020,2000,g  9.5,6.0
# From NK 3013
51P-A/Harrington,e,5.4254,83.6773,269.2316,3.708793,0.1379924,0.54275081,222.1100,01/07.0/2020,2000,g 16.0,8.0
# From NK 3014
51P-A/Harrington,e,5.4247,83.6929,269.1923,3.709818,0.1379352,0.54282252,221.8661,01/07.0/2020,2000,g 10.0,8.0
# From NK 3014
51P-A/Harrington,e,5.4247,83.6929,269.1923,3.709799,0.1379363,0.54281943,221.8691,01/07.0/2020,2000,g 10.0,8.0
# From MPEC 2015-L08
51P-D/Harrington,e,5.4261,83.6828,269.1817,3.708883,0.1379874,0.54276492,222.1062,01/07.0/2020,2000,g 16.0,8.0
# From MPEC 2015-L08
51P-D/Harrington,e,5.4262,83.6818,269.1825,3.708871,0.1379881,0.54276551,222.1112,01/07.0/2020,2000,g 16.0,8.0
# From NK 3013
51P-D/Harrington,e,5.4254,83.6776,269.2313,3.708792,0.1379925,0.54275100,222.1101,01/07.0/2020,2000,g 16.0,8.0
# From NK 3013
51P-D/Harrington,e,5.4254,83.6776,269.2313,3.708792,0.1379924,0.54275113,222.1101,01/07.0/2020,2000,g 16.0,8.0
# From MPC 88330
52P/Harrington-Abell,e,10.2308,336.8378,139.6022,3.861902,0.1298680,0.53960754,277.2237,01/07.0/2020,2000,g 13.5,6.0
# From MPC100283
53P/Van Biesbroeck,e,6.6074,148.8511,134.3602,5.423350,0.0780374,0.55234067,105.0559,01/07.0/2020,2000,g  7.7,4.8
# From MPC 89011
54P/de Vico-Swift-NEAT,e,6.0600,358.8184,1.7696,3.793881,0.1333762,0.42515532,132.8983,01/07.0/2020,2000,g  9.0,4.0
# From MPC 31070
55P/Tempel-Tuttle,e,162.3622,235.4044,172.5563,10.34585,0.0296179,0.90684255,237.1032,01/07.0/2020,2000,g  9.0,4.0
# From MPC101100
56P/Slaughter-Burnham,e,8.1554,345.9765,44.0521,5.073402,0.0862492,0.50653450,109.3537,01/07.0/2020,2000,g  8.5,6.0
# From MPC 98565
57P/du Toit-Neujmin-Delporte,e,2.8497,188.7827,115.1946,3.447697,0.1539609,0.50063937,260.0108,01/07.0/2020,2000,g 12.5,6.0
# From NK 778
58P/Jackson-Neujmin,e,13.1004,159.0688,200.4571,4.083528,0.1194403,0.66266371,343.3927,01/07.0/2020,2000,g  9.0,4.0
# From MPC111774
59P/Kearns-Kwee,e,9.3411,312.8294,127.6512,4.490935,0.1035616,0.47490055,49.4391,01/07.0/2020,2000,g  7.0,6.0
# From MPEC 2015-M77
60P/Tsuchinshan,e,3.6066,267.5821,216.6337,3.512608,0.1497130,0.53765664,58.6418,01/07.0/2020,2000,g  9.0,4.0
# From MPEC 2015-Q71
61P/Shajn-Schaldach,e,5.9991,162.9920,221.9242,3.684207,0.1393760,0.42382535,217.5726,01/07.0/2020,2000,g  6.0,10.0
# From MPC109147
62P/Tsuchinshan,e,9.6713,90.0714,29.8457,3.414923,0.1561826,0.61676901,119.9545,01/07.0/2020,2000,g  8.0,10.0
# From MPC 84320
63P/Wild,e,19.7448,358.0139,169.1667,5.603780,0.0742989,0.64929245,183.1528,01/07.0/2020,2000,g 10.5,6.0
# From MPC111774
64P/Swift-Gehrels,e,8.9500,299.9989,97.1200,4.456102,0.1047783,0.68749376,44.9615,01/07.0/2020,2000,g  9.5,12.0
# From MPC104795
65P/Gunn,e,9.1840,62.0230,213.7391,3.883194,0.1288013,0.24998855,104.5067,01/07.0/2020,2000,g  5.0,6.0
# From MPC109147
66P/du Toit,e,18.6662,21.8844,257.2669,6.060372,0.0660625,0.78698371,39.4918,01/07.0/2020,2000,g  9.0,4.0
# From MPC 89011
67P/Churyumov-Gerasimenko,e,3.9157,37.3171,21.5001,3.449027,0.1538718,0.65415978,257.9668,01/07.0/2020,2000,g 11.0,4.0
# From MPC 75716
68P/Klemola,e,11.1109,175.0822,153.0603,4.948411,0.0895376,0.63748809,5.2791,01/07.0/2020,2000,g 10.0,4.0
# From MPC114607
69P/Taylor,e,22.0330,104.8306,343.5399,3.890535,0.1284370,0.41312734,37.8418,01/07.0/2020,2000,g  9.5,12.0
# From MPC 92276
70P/Kojima,e,6.5982,119.2679,1.8694,3.674971,0.1399018,0.45327032,266.7746,01/07.0/2020,2000,g 11.0,6.0
# From MPC107051
71P/Clark,e,9.4426,59.4420,208.9974,3.138042,0.1773029,0.49425932,163.2109,01/07.0/2020,2000,g  9.8,6.0
# From MPC 89011
72P/Denning-Fujikawa,e,10.9257,26.6917,346.6666,4.311951,0.1100762,0.81785680,221.6766,01/07.0/2020,2000,g 17.5,10.0
# From MPC106348
73P/Schwassmann-Wachmann,e,11.2359,69.6544,199.4284,3.093126,0.1811790,0.68574234,185.8416,01/07.0/2020,2000,g 11.5,6.0
# From MPC106348
73P-T/Schwassmann-Wachmann,e,11.2380,69.6569,199.4099,3.094685,0.1810420,0.68594559,185.7021,01/07.0/2020,2000,g 11.5,6.0
# From MPC102956
74P/Smirnova-Chernykh,e,6.6430,77.0502,89.1876,4.186348,0.1150671,0.15265234,80.1812,01/07.0/2020,2000,g  5.0,6.0
# From MPC118097
76P/West-Kohoutek-Ikemura,e,30.4568,84.1249,0.0206,3.475096,0.1521437,0.53820212,11.0849,01/07.0/2020,2000,g  8.0,12.0
# From MPC100283
77P/Longmore,e,24.3297,14.8046,196.8677,3.619825,0.1431109,0.35265982,190.8627,01/07.0/2020,2000,g  7.0,8.0
# From MPEC 2016-U66
78P/Gehrels,e,6.2485,210.5416,192.6712,3.740541,0.1362393,0.46168158,38.0565,01/07.0/2020,2000,g  9.0,4.0
# From MPC 94675
79P/du Toit-Hartley,e,3.1480,280.5256,281.8266,2.942810,0.1952364,0.61910611,93.8566,01/07.0/2020,2000,g 16.0,4.0
# From MPEC 2014-P41
80P/Peters-Hartley,e,29.9471,259.8221,339.2480,4.024297,0.1220869,0.59923204,229.8194,01/07.0/2020,2000,g  9.0,4.0
# From MPC105241
81P/Wild,e,3.2372,136.1093,41.7240,3.449880,0.1538148,0.53735049,194.8329,01/07.0/2020,2000,g  7.0,6.0
# From MPC 75717
82P/Gehrels,e,1.1283,239.3146,226.9765,4.137981,0.1170904,0.12188100,65.4418,01/07.0/2020,2000,g  5.0,8.0
# From MPC105241
84P/Giclas,e,7.5523,108.1748,281.5518,3.547793,0.1474914,0.51549682,338.0544,01/07.0/2020,2000,g  9.5,8.0
# From MPC109147
86P/Wild,e,15.4761,72.3780,179.2928,3.604515,0.1440237,0.37265861,250.2235,01/07.0/2020,2000,g 11.0,6.0
# From MPC105241
87P/Bus,e,2.6023,181.8620,24.9218,3.437978,0.1546142,0.38921581,340.9472,01/07.0/2020,2000,g  7.2,10.0
# From MPEC 2019-JE2
88P/Howell,e,4.3838,56.6860,235.9141,3.105308,0.1801138,0.56423875,312.5158,01/07.0/2020,2000,g 11.0,6.0
# From MPC100283
89P/Russell,e,12.0720,41.4249,250.2422,3.753903,0.1355125,0.40865883,151.4460,01/07.0/2020,2000,g 11.5,6.0
# From MPC107051
90P/Gehrels,e,9.6387,13.2204,29.1417,6.057140,0.0661154,0.50947279,61.6326,01/07.0/2020,2000,g  8.5,6.0
# From MPC105241
91P/Russell,e,14.0916,247.8292,354.7613,3.890792,0.1284242,0.33060021,320.5418,01/07.0/2020,2000,g  7.5,6.0
# From MPEC 2014-J58
92P/Sanguin,e,19.4705,181.3992,163.7044,5.346273,0.0797310,0.66022010,141.2693,01/07.0/2020,2000,g 12.0,6.0
